{
  "links" : {
    "next" : "https://api.nasa.gov/neo/rest/v1/feed?start_date=2004-06-23&end_date=2004-06-23&detailed=true&api_key=t0TVs3DtDT2H8Oy2Zy8m2eVrNsAVKAexjcZXUckd",
    "prev" : "https://api.nasa.gov/neo/rest/v1/feed?start_date=2004-06-21&end_date=2004-06-21&detailed=true&api_key=t0TVs3DtDT2H8Oy2Zy8m2eVrNsAVKAexjcZXUckd",
    "self" : "https://api.nasa.gov/neo/rest/v1/feed?start_date=2004-06-22&end_date=2004-06-22&detailed=true&api_key=t0TVs3DtDT2H8Oy2Zy8m2eVrNsAVKAexjcZXUckd"
  },
  "element_count" : 7,
  "near_earth_objects" : {
    "2004-06-22" : [ {
      "links" : {
        "self" : "https://api.nasa.gov/neo/rest/v1/neo/2138971?api_key=t0TVs3DtDT2H8Oy2Zy8m2eVrNsAVKAexjcZXUckd"
      },
      "neo_reference_id" : "2138971",
      "name" : "138971 (2001 CB21)",
      "nasa_jpl_url" : "http://ssd.jpl.nasa.gov/sbdb.cgi?sstr=2138971",
      "absolute_magnitude_h" : 18.4,
      "estimated_diameter" : {
        "kilometers" : {
          "estimated_diameter_min" : 0.5553349116,
          "estimated_diameter_max" : 1.2417666126
        },
        "meters" : {
          "estimated_diameter_min" : 555.334911581,
          "estimated_diameter_max" : 1241.766612574
        },
        "miles" : {
          "estimated_diameter_min" : 0.3450690093,
          "estimated_diameter_max" : 0.7715977618
        },
        "feet" : {
          "estimated_diameter_min" : 1821.9649913114,
          "estimated_diameter_max" : 4074.0375731972
        }
      },
      "is_potentially_hazardous_asteroid" : true,
      "close_approach_data" : [ {
        "close_approach_date" : "2004-06-22",
        "epoch_date_close_approach" : 1087887600000,
        "relative_velocity" : {
          "kilometers_per_second" : "12.0806577368",
          "kilometers_per_hour" : "43490.3678524112",
          "miles_per_hour" : "27023.2232914052"
        },
        "miss_distance" : {
          "astronomical" : "0.3459188073",
          "lunar" : "134.5624084473",
          "kilometers" : "51748716",
          "miles" : "32155162"
        },
        "orbiting_body" : "Earth"
      } ],
      "orbital_data" : {
        "orbit_id" : "167",
        "orbit_determination_date" : "2017-04-06 09:27:42",
        "orbit_uncertainty" : "0",
        "minimum_orbit_intersection" : ".0233526",
        "jupiter_tisserand_invariant" : "5.862",
        "epoch_osculation" : "2458000.5",
        "eccentricity" : ".3335362175136748",
        "semi_major_axis" : "1.034602520394318",
        "inclination" : "7.901792318502172",
        "ascending_node_longitude" : "353.7647377784929",
        "orbital_period" : "384.378178991939",
        "perihelion_distance" : ".6895251091118825",
        "perihelion_argument" : "271.7438508036805",
        "aphelion_distance" : "1.379679931676753",
        "perihelion_time" : "2458172.147941355465",
        "mean_anomaly" : "199.2383796342836",
        "mean_motion" : ".9365776198433724",
        "equinox" : "J2000"
      }
    }, {
      "links" : {
        "self" : "https://api.nasa.gov/neo/rest/v1/neo/2230111?api_key=t0TVs3DtDT2H8Oy2Zy8m2eVrNsAVKAexjcZXUckd"
      },
      "neo_reference_id" : "2230111",
      "name" : "230111 (2001 BE10)",
      "nasa_jpl_url" : "http://ssd.jpl.nasa.gov/sbdb.cgi?sstr=2230111",
      "absolute_magnitude_h" : 19.1,
      "estimated_diameter" : {
        "kilometers" : {
          "estimated_diameter_min" : 0.4023045798,
          "estimated_diameter_max" : 0.8995803882
        },
        "meters" : {
          "estimated_diameter_min" : 402.3045798343,
          "estimated_diameter_max" : 899.5803881691
        },
        "miles" : {
          "estimated_diameter_min" : 0.2499803991,
          "estimated_diameter_max" : 0.5589731654
        },
        "feet" : {
          "estimated_diameter_min" : 1319.8969577037,
          "estimated_diameter_max" : 2951.3793207207
        }
      },
      "is_potentially_hazardous_asteroid" : true,
      "close_approach_data" : [ {
        "close_approach_date" : "2004-06-22",
        "epoch_date_close_approach" : 1087887600000,
        "relative_velocity" : {
          "kilometers_per_second" : "17.1197789951",
          "kilometers_per_hour" : "61631.2043822149",
          "miles_per_hour" : "38295.233634049"
        },
        "miss_distance" : {
          "astronomical" : "0.4329660871",
          "lunar" : "168.4238128662",
          "kilometers" : "64770804",
          "miles" : "40246712"
        },
        "orbiting_body" : "Earth"
      } ],
      "orbital_data" : {
        "orbit_id" : "113",
        "orbit_determination_date" : "2017-04-06 09:25:10",
        "orbit_uncertainty" : "0",
        "minimum_orbit_intersection" : ".0423433",
        "jupiter_tisserand_invariant" : "7.026",
        "epoch_osculation" : "2458000.5",
        "eccentricity" : ".3691459782374203",
        "semi_major_axis" : ".8231696306005475",
        "inclination" : "17.50753782837232",
        "ascending_node_longitude" : "297.7973710117565",
        "orbital_period" : "272.7925064315339",
        "perihelion_distance" : ".5192998720571724",
        "perihelion_argument" : "30.57114985389649",
        "aphelion_distance" : "1.127039389143923",
        "perihelion_time" : "2458113.728986495010",
        "mean_anomaly" : "210.5734791932989",
        "mean_motion" : "1.319684344373124",
        "equinox" : "J2000"
      }
    }, {
      "links" : {
        "self" : "https://api.nasa.gov/neo/rest/v1/neo/2350713?api_key=t0TVs3DtDT2H8Oy2Zy8m2eVrNsAVKAexjcZXUckd"
      },
      "neo_reference_id" : "2350713",
      "name" : "350713 (2001 XP88)",
      "nasa_jpl_url" : "http://ssd.jpl.nasa.gov/sbdb.cgi?sstr=2350713",
      "absolute_magnitude_h" : 20.7,
      "estimated_diameter" : {
        "kilometers" : {
          "estimated_diameter_min" : 0.1925550782,
          "estimated_diameter_max" : 0.4305662442
        },
        "meters" : {
          "estimated_diameter_min" : 192.5550781879,
          "estimated_diameter_max" : 430.566244241
        },
        "miles" : {
          "estimated_diameter_min" : 0.1196481415,
          "estimated_diameter_max" : 0.2675413778
        },
        "feet" : {
          "estimated_diameter_min" : 631.7424027221,
          "estimated_diameter_max" : 1412.6189567557
        }
      },
      "is_potentially_hazardous_asteroid" : false,
      "close_approach_data" : [ {
        "close_approach_date" : "2004-06-22",
        "epoch_date_close_approach" : 1087887600000,
        "relative_velocity" : {
          "kilometers_per_second" : "4.8330186665",
          "kilometers_per_hour" : "17398.8671993824",
          "miles_per_hour" : "10810.9794550829"
        },
        "miss_distance" : {
          "astronomical" : "0.3427371953",
          "lunar" : "133.3247680664",
          "kilometers" : "51272756",
          "miles" : "31859414"
        },
        "orbiting_body" : "Earth"
      } ],
      "orbital_data" : {
        "orbit_id" : "56",
        "orbit_determination_date" : "2017-04-06 09:23:06",
        "orbit_uncertainty" : "0",
        "minimum_orbit_intersection" : ".137719",
        "jupiter_tisserand_invariant" : "4.854",
        "epoch_osculation" : "2458000.5",
        "eccentricity" : ".1946945986532002",
        "semi_major_axis" : "1.347063762870818",
        "inclination" : "6.745458483604939",
        "ascending_node_longitude" : "97.80945903086813",
        "orbital_period" : "571.0585746256131",
        "perihelion_distance" : "1.084797724198414",
        "perihelion_argument" : "261.3772166679892",
        "aphelion_distance" : "1.609329801543222",
        "perihelion_time" : "2457862.624815703364",
        "mean_anomaly" : "86.91764479559718",
        "mean_motion" : ".6304081857732661",
        "equinox" : "J2000"
      }
    } ]
  }
}